[{"OBJECT_NAME":"STARLINK-34163","OBJECT_ID":"2025-101Q","EPOCH":"2026-03-09T04:03:05.566752","MEAN_MOTION":15.27598639,"ECCENTRICITY":0.00038207,"INCLINATION":43.0016,"RA_OF_ASC_NODE":1.0719,"ARG_OF_PERICENTER":246.0935,"MEAN_ANOMALY":113.9516,"EPHEMERIS_TYPE":0,"CLASSIFICATION_TYPE":"U","NORAD_CAT_ID":64008,"ELEMENT_SET_NO":999,"REV_AT_EPOCH":4697,"BSTAR":0.0016562028,"MEAN_MOTION_DOT":0.00045628,"MEAN_MOTION_DDOT":0},{"OBJECT_NAME":"DELTA 2 R\/B","OBJECT_ID":"1990-074B","EPOCH":"2026-03-09T13:41:18.722976","MEAN_MOTION":14.63139944,"ECCENTRICITY":0.0331131,"INCLINATION":24.7574,"RA_OF_ASC_NODE":207.7051,"ARG_OF_PERICENTER":168.7615,"MEAN_ANOMALY":192.0502,"EPHEMERIS_TYPE":0,"CLASSIFICATION_TYPE":"U","NORAD_CAT_ID":20763,"ELEMENT_SET_NO":999,"REV_AT_EPOCH":86338,"BSTAR":0.00071917,"MEAN_MOTION_DOT":8.858e-5,"MEAN_MOTION_DDOT":0}]
